EPOCH,NORAD_CAT_ID,MEAN_MOTION,ECCENTRICITY,INCLINATION,RA_OF_ASC_NODE,ARG_OF_PERICENTER,MEAN_ANOMALY,MEAN_MOTION_DOT,BSTAR,TLE_LINE1,TLE_LINE2
2022-12-30 07:02:20.371776,50803,15.08844556,0.00030560,53.2198,0.7976,25.1123,335.0017,0.00000789,0.00006769400000,1 50803U 22001A   22364.29329134  .00000789  00000-0  67694-4 0  9991,2 50803  53.2198   0.7976 0003056  25.1123 335.0017 15.08844556 55749
2022-12-30 16:34:38.491392,50803,15.08851341,0.00026330,53.2202,359.0126,31.1525,328.9623,0.00003750,0.00025352000000,1 50803U 22001A   22364.69072328  .00003750  00000-0  25352-3 0  9990,2 50803  53.2202 359.0126 0002633  31.1525 328.9623 15.08851341 55806
2022-12-31 00:31:34.694112,50803,15.08853940,0.00030220,53.2199,357.5263,27.1645,332.9505,0.00008377,0.00054358000000,1 50803U 22001A   22365.02192933  .00008377  00000-0  54358-3 0  9991,2 50803  53.2199 357.5263 0003022  27.1645 332.9505 15.08853940 55853
2022-12-31 06:53:06.850176,50803,15.08867376,0.00030170,53.2200,356.3371,27.9540,332.1613,0.00010502,0.00067645000000,1 50803U 22001A   22365.28688484  .00010502  00000-0  67645-3 0  9996,2 50803  53.2200 356.3371 0003017  27.9540 332.1613 15.08867376 54623
2022-12-31 16:25:25.216896,50803,15.08860685,0.00029420,53.2172,354.5527,23.5072,336.6054,0.00002388,0.00016804000000,1 50803U 22001A   22365.68431964  .00002388  00000-0  16804-3 0  9993,2 50803  53.2172 354.5527 0002942  23.5072 336.6054 15.08860685 54682
2023-01-01 00:22:21.082656,50803,15.08847195,0.00028790,53.2196,353.0659,25.0081,335.1050,-0.00002417,-0.00013373000000,1 50803U 22001A   23001.01552179 -.00002417  00000-0 -13373-3 0  9993,2 50803  53.2196 353.0659 0002879  25.0081 335.1050 15.08847195 56003
2023-01-01 08:19:16.788576,50803,15.08835879,0.00027710,53.2177,351.5783,20.1349,339.9752,-0.00006583,-0.00039585000000,1 50803U 22001A   23001.34672209 -.00006583  00000-0 -39585-3 0  9997,2 50803  53.2177 351.5783 0002771  20.1349 339.9752 15.08835879 54787
2023-01-01 08:19:16.788576,50803,15.08835879,0.00027710,53.2177,351.5783,20.1349,339.9752,-0.00006583,-0.00039585000000,1 50803U 22001A   23001.34672209 -.00006583  00000-0 -39585-3 0  9997,2 50803  53.2177 351.5783 0002771  20.1349 339.9752 15.08835879 56059
2023-01-01 22:37:46.049376,50803,15.08823320,0.00030640,53.2182,348.9020,25.1104,335.0036,-0.00004444,-0.00026137000000,1 50803U 22001A   23001.94289409 -.00004444  00000-0 -26137-3 0  9992,2 50803  53.2182 348.9020 0003064  25.1104 335.0036 15.08823320 54877
2023-01-02 01:48:32.614272,50803,15.08823462,0.00030080,53.2179,348.3068,23.8892,336.2239,-0.00002687,-0.00015083000000,1 50803U 22001A   23002.07537748 -.00002687  00000-0 -15083-3 0  9994,2 50803  53.2179 348.3068 0003008  23.8892 336.2239 15.08823462 56165
2023-01-02 08:10:05.380320,50803,15.08825566,0.00030840,53.2176,347.1169,25.6789,334.4356,0.00001035,0.00008320100000,1 50803U 22001A   23002.34034005  .00001035  00000-0  83201-4 0  9994,2 50803  53.2176 347.1169 0003084  25.6789 334.4356 15.08825566 54930
2023-01-02 16:07:01.274592,50803,15.08833662,0.00030550,53.2177,345.6304,25.1580,334.9561,0.00005809,0.00038287000000,1 50803U 22001A   23002.67154253  .00005809  00000-0  38287-3 0  9994,2 50803  53.2177 345.6304 0003055  25.1580 334.9561 15.08833662 56253
2023-01-02 22:28:33.972384,50803,15.08839431,0.00030230,53.2176,344.4408,25.1251,334.9888,0.00010627,0.00068475000000,1 50803U 22001A   23002.93650431  .00010627  00000-0  68475-3 0  9998,2 50803  53.2176 344.4408 0003023  25.1251 334.9888 15.08839431 55020
2023-01-03 09:36:15.858720,50803,15.08849944,0.00030560,53.2177,342.3594,25.6152,334.4991,0.00011547,0.00074220000000,1 50803U 22001A   23003.40018355  .00011547  00000-0  74220-3 0  9991,2 50803  53.2177 342.3594 0003056  25.6152 334.4991 15.08849944 55092
2023-01-04 04:40:53.919264,50803,15.08834740,0.00030610,53.2184,338.7910,26.8057,333.3093,0.00001616,0.00011966000000,1 50803U 22001A   23004.19506851  .00001616  00000-0  11966-3 0  9995,2 50803  53.2184 338.7910 0003061  26.8057 333.3093 15.08834740 56487
2023-01-04 09:27:03.273696,50803,15.08838301,0.00030590,53.2186,337.8994,26.5036,333.6112,0.00003029,0.00020835000000,1 50803U 22001A   23004.39378789  .00003029  00000-0  20835-3 0  9999,2 50803  53.2186 337.8994 0003059  26.5036 333.6112 15.08838301 55247
2023-01-05 04:31:40.162656,50803,15.08851288,0.00030740,53.2186,334.3310,26.8717,333.2434,0.00002918,0.00020131000000,1 50803U 22001A   23005.18865929  .00002918  00000-0  20131-3 0  9999,2 50803  53.2186 334.3310 0003074  26.8717 333.2434 15.08851288 56633
2023-01-05 07:42:26.393184,50803,15.08851471,0.00030740,53.2186,333.7364,27.8090,332.3066,0.00003079,0.00021143000000,1 50803U 22001A   23005.32113881  .00003079  00000-0  21143-3 0  9991,2 50803  53.2186 333.7364 0003074  27.8090 332.3066 15.08851471 55386
2023-01-06 07:33:14.856192,50803,15.08827750,0.00030850,53.2194,329.2771,23.3016,336.8115,-0.00000055,0.00001466900000,1 50803U 22001A   23006.31475528 -.00000055  00000-0  14669-4 0  9998,2 50803  53.2194 329.2771 0003085  23.3016 336.8115 15.08827750 55532
2023-01-06 07:33:14.856192,50803,15.08827750,0.00030850,53.2194,329.2771,23.3016,336.8115,-0.00000055,0.00001466900000,1 50803U 22001A   23006.31475528 -.00000055  00000-0  14669-4 0  9998,2 50803  53.2194 329.2771 0003085  23.3016 336.8115 15.08827750 56803
2023-01-07 04:13:14.750688,50803,15.08838714,0.00029980,53.2193,325.4120,22.2676,337.8446,0.00001751,0.00012814000000,1 50803U 22001A   23007.17586517  .00001751  00000-0  12814-3 0  9996,2 50803  53.2193 325.4120 0002998  22.2676 337.8446 15.08838714 56934
2023-01-07 05:48:37.791648,50803,15.08841278,0.00030290,53.2193,325.1146,22.5943,337.5182,0.00002096,0.00014980000000,1 50803U 22001A   23007.24210407  .00002096  00000-0  14980-3 0  9995,2 50803  53.2193 325.1146 0003029  22.5943 337.5182 15.08841278 55678
2023-01-07 13:45:33.982272,50803,15.08836535,0.00031210,53.2204,323.6277,23.9108,336.2029,0.00000842,0.00007105000000,1 50803U 22001A   23007.57330998  .00000842  00000-0  71050-4 0  9998,2 50803  53.2204 323.6277 0003121  23.9108 336.2029 15.08836535 55722
2023-01-08 04:04:03.154944,50803,15.08827808,0.00030650,53.2203,320.9523,27.0707,333.0444,0.00000296,0.00003672900000,1 50803U 22001A   23008.16948096  .00000296  00000-0  36729-4 0  9995,2 50803  53.2203 320.9523 0003065  27.0707 333.0444 15.08827808 57082
2023-01-08 13:36:21.439584,50803,15.08840043,0.00031300,53.2209,319.1689,31.1645,328.9532,0.00000452,0.00004651700000,1 50803U 22001A   23008.56691481  .00000452  00000-0  46517-4 0  9992,2 50803  53.2209 319.1689 0003130  31.1645 328.9532 15.08840043 55873
2023-01-08 13:36:21.439584,50803,15.08840043,0.00031300,53.2209,319.1689,31.1645,328.9532,0.00000452,0.00004651700000,1 50803U 22001A   23008.56691481  .00000452  00000-0  46517-4 0  9992,2 50803  53.2209 319.1689 0003130  31.1645 328.9532 15.08840043 57145
2023-01-09 13:27:07.466112,50803,15.08851953,0.00029470,53.2195,314.7068,21.7329,338.3788,0.00000205,0.00003099500000,1 50803U 22001A   23009.56050308  .00000205  00000-0  30995-4 0  9999,2 50803  53.2195 314.7068 0002947  21.7329 338.3788 15.08851953 56026
2023-01-09 13:27:07.466112,50803,15.08851953,0.00029470,53.2195,314.7068,21.7329,338.3788,0.00000205,0.00003099500000,1 50803U 22001A   23009.56050308  .00000205  00000-0  30995-4 0  9999,2 50803  53.2195 314.7068 0002947  21.7329 338.3788 15.08851953 57296
2023-01-10 02:10:14.206080,50803,15.08832868,0.00027950,53.2199,312.3280,22.1464,337.9649,-0.00001603,-0.00008261600000,1 50803U 22001A   23010.09044220 -.00001603  00000-0 -82616-4 0  9997,2 50803  53.2199 312.3280 0002795  22.1464 337.9649 15.08832868 57370
2023-01-10 13:17:56.324832,50803,15.08832249,0.00028090,53.2186,310.2464,22.3320,337.7794,-0.00001528,-0.00007790400000,1 50803U 22001A   23010.55412413 -.00001528  00000-0 -77904-4 0  9991,2 50803  53.2186 310.2464 0002809  22.3320 337.7794 15.08832249 56175
2023-01-11 02:01:00.133248,50803,15.08849615,0.00029800,53.2200,307.8667,25.6927,334.4213,0.00000810,0.00006901200000,1 50803U 22001A   23011.08402932  .00000810  00000-0  69012-4 0  9997,2 50803  53.2200 307.8667 0002980  25.6927 334.4213 15.08849615 57523
2023-01-11 13:08:41.121024,50803,15.08858683,0.00027840,53.2183,305.7843,24.5433,335.5691,0.00001905,0.00013772000000,1 50803U 22001A   23011.54769816  .00001905  00000-0  13772-3 0  9992,2 50803  53.2183 305.7843 0002784  24.5433 335.5691 15.08858683 56322
2023-01-11 19:30:13.847328,50803,15.08849017,0.00029220,53.2197,304.5956,28.7989,331.3164,0.00003904,0.00026317000000,1 50803U 22001A   23011.81266027  .00003904  00000-0  26317-3 0  9998,2 50803  53.2197 304.5956 0002922  28.7989 331.3164 15.08849017 56369
2023-01-12 19:21:00.037152,50803,15.08860329,0.00029110,53.2194,300.1362,23.9154,336.1973,0.00001970,0.00014179000000,1 50803U 22001A   23012.80625043  .00001970  00000-0  14179-3 0  9999,2 50803  53.2194 300.1362 0002911  23.9154 336.1973 15.08860329 57785
2023-01-12 22:31:48.206496,50803,15.08834645,0.00029990,53.2194,299.5402,20.9203,339.1912,-0.00001896,-0.00010101000000,1 50803U 22001A   23012.93875239 -.00001896  00000-0 -10101-3 0  9997,2 50803  53.2194 299.5402 0002999  20.9203 339.1912 15.08834645 57800
2023-01-12 22:31:48.206496,50803,15.08834645,0.00029990,53.2194,299.5402,20.9203,339.1912,-0.00001896,-0.00010101000000,1 50803U 22001A   23012.93875239 -.00001896  00000-0 -10101-3 0  9997,2 50803  53.2194 299.5402 0002999  20.9203 339.1912 15.08834645 56539
2023-01-13 01:42:34.387776,50803,15.08835686,0.00027430,53.2198,298.9453,25.9612,334.1517,-0.00001741,-0.00009129900000,1 50803U 22001A   23013.07123134 -.00001741  00000-0 -91299-4 0  9990,2 50803  53.2198 298.9453 0002743  25.9612 334.1517 15.08835686 56552
2023-01-14 03:08:43.265184,50803,15.08846912,0.00028270,53.2180,294.1903,32.0835,328.0329,-0.00000309,-0.00000130290000,1 50803U 22001A   23014.13105631 -.00000309  00000-0 -13029-5 0  9995,2 50803  53.2180 294.1903 0002827  32.0835 328.0329 15.08846912 57985
